{
  "norad_id": 60333,
  "name": "STARLINK-32133",
  "history": [
    {
      "epoch": "2026-03-28T17:05:26.017152Z",
      "apogee_km": 476.17523606442046,
      "perigee_km": 474.23861813750045,
      "latitude_deg": 2.7442394610430408e-05,
      "longitude_deg": -94.93830458137471,
      "height_km": 476.11560477850185,
      "semi_major_axis_km": 6853.34392710096,
      "eccentricity": 0.00014129,
      "inclination_deg": 53.1629,
      "raan_deg": 347.5487,
      "arg_perigee_deg": 90.6208,
      "mean_anomaly_deg": 269.4955,
      "mean_motion_rev_day": 15.30202727
    },
    {
      "epoch": "2026-03-29T00:55:42.220704Z",
      "apogee_km": 476.1042239164117,
      "perigee_km": 474.3840252541404,
      "latitude_deg": -4.306926985079903e-05,
      "longitude_deg": 145.65463957929208,
      "height_km": 476.16038398198134,
      "semi_major_axis_km": 6853.381124585276,
      "eccentricity": 0.0001255,
      "inclination_deg": 53.1625,
      "raan_deg": 346.0311,
      "arg_perigee_deg": 91.192,
      "mean_anomaly_deg": 268.9224,
      "mean_motion_rev_day": 15.30190269
    },
    {
      "epoch": "2026-03-30T02:00:33.236064Z",
      "apogee_km": 475.8988376035886,
      "perigee_km": 474.58161850035776,
      "latitude_deg": -2.689821265976497e-05,
      "longitude_deg": 123.55435481105484,
      "height_km": 476.5467511197416,
      "semi_major_axis_km": 6853.377228051973,
      "eccentricity": 9.61e-05,
      "inclination_deg": 53.1613,
      "raan_deg": 341.1734,
      "arg_perigee_deg": 128.2374,
      "mean_anomaly_deg": 231.8713,
      "mean_motion_rev_day": 15.30191574
    }
  ]
}